NORAD_CAT_ID,OBJECT_NAME,OBJECT_TYPE,EPOCH,MEAN_MOTION,ECCENTRICITY,INCLINATION,RA_OF_ASC_NODE,ARG_OF_PERICENTER,MEAN_ANOMALY,BSTAR,MEAN_MOTION_DOT,MEAN_MOTION_DDOT,TLE_LINE0,TLE_LINE1,TLE_LINE2,SEMIMAJOR_AXIS,PERIOD,APOGEE,PERIGEE,DECAYED
49164.0,STARLINK-3106,PAYLOAD,2021-12-20 14:40:52,15.6977441,0.0003618,69.9968,212.7805,267.6038,92.4743,0.00021223,0.00025226,0.0,0 STARLINK-3106,1 49164U 21082AL  21354.61171973  .00025226  00000-0  21223-3 0  9997,2 49164  69.9968 212.7805 0003618 267.6038  92.4743 15.69774410 16570,6737.679,91.733,361.982,357.107,0.0
49164.0,STARLINK-3106,PAYLOAD,2021-12-20 22:00:01,15.69777463,0.0003575,69.9966,211.9237,272.3519,10.66,-0.00024832,-0.00029787,0.0,0 STARLINK-3106,1 49164U 21082AL  21354.91668981 -.00029787  00000-0 -24832-3 0  9997,2 49164  69.9966 211.9237 0003575 272.3519  10.6600 15.69777463  3680,6737.670999999999,91.733,361.944,357.12699999999984,0.0
49164.0,STARLINK-3106,PAYLOAD,2021-12-21 14:00:01,15.69673547,0.0003826,69.9976,210.0499,266.3984,182.7993,8.337299999999999e-05,9.722e-05,0.0,0 STARLINK-3106,1 49164U 21082AL  21355.58334491  .00009722  00000-0  83373-4 0  9998,2 49164  69.9976 210.0499 0003826 266.3984 182.7993 15.69673547 16722,6737.968000000003,91.739,362.411,357.255,0.0
49164.0,STARLINK-3106,PAYLOAD,2021-12-21 22:00:00,15.6965896,0.0003933,69.998,209.1131,272.3357,259.9095,0.00037627,0.00044782,0.0,0 STARLINK-3106,1 49164U 21082AL  21355.91667824  .00044782  00000-0  37627-3 0  9999,2 49164  69.9980 209.1131 0003933 272.3357 259.9095 15.69658960  3682,6738.01,91.74,362.525,357.225,0.0
49164.0,STARLINK-3106,PAYLOAD,2021-12-22 12:00:00,15.69691976,0.0003977,69.9982,207.4733,266.351,321.254,0.00088995,0.00107151,0.0,0 STARLINK-3106,1 49164U 21082AL  21356.50001157  .00107151  00000-0  88995-3 0  9990,2 49164  69.9982 207.4733 0003977 266.3510 321.2540 15.69691976 16861,6737.915,91.738,362.46,357.101,0.0
49164.0,STARLINK-3106,PAYLOAD,2021-12-22 14:00:01,15.69728395,0.0003953,69.9986,207.2391,266.3491,72.0183,0.00051004,0.00061073,0.0,0 STARLINK-3106,1 49164U 21082AL  21356.58334491  .00061073  00000-0  51004-3 0  9991,2 49164  69.9986 207.2391 0003953 266.3491  72.0183 15.69728395  3681,6737.811,91.736,362.34,357.01300000000015,0.0
49164.0,STARLINK-3106,PAYLOAD,2021-12-22 20:00:01,15.69740544,0.0003952,69.9986,206.5363,270.1688,40.5237,0.00020644,0.00024497,0.0,0 STARLINK-3106,1 49164U 21082AL  21356.83334491  .00024497  00000-0  20644-3 0  9994,2 49164  69.9986 206.5363 0003952 270.1688  40.5237 15.69740544 16923,6737.776,91.735,362.304,356.97900000000016,0.0
49164.0,STARLINK-3106,PAYLOAD,2021-12-22 22:00:00,15.69733856,0.0003913,69.9987,206.302,271.7339,149.741,0.0004476,0.00053533,0.0,0 STARLINK-3106,1 49164U 21082AL  21356.91667824  .00053533  00000-0  44760-3 0  9990,2 49164  69.9987 206.3020 0003913 271.7339 149.7410 15.69733856  3704,6737.795,91.735,362.297,357.024,0.0
49164.0,STARLINK-3106,PAYLOAD,2021-12-23 14:00:01,15.69749002,0.0003602,69.999,204.4283,266.1303,321.6404,0.00020484,0.00024312,0.0,0 STARLINK-3106,1 49164U 21082AL  21357.58334491  .00024312  00000-0  20484-3 0  9995,2 49164  69.9990 204.4283 0003602 266.1303 321.6404 15.69749002  3672,6737.752,91.734,362.044,357.19,0.0
49164.0,STARLINK-3106,PAYLOAD,2021-12-23 22:00:00,15.69748769,0.0003819,70.0001,203.4969,272.8401,37.9148,-2.7999e-05,-3.554e-05,0.0,0 STARLINK-3106,1 49164U 21082AL  21357.91667824 -.00003554  00000-0 -27999-4 0  9997,2 49164  70.0001 203.4969 0003819 272.8401  37.9148 15.69748769 17093,6737.753000000002,91.734,362.191,357.045,0.0
49164.0,STARLINK-3106,PAYLOAD,2021-12-24 06:00:00,15.69743449,0.0003386,69.9988,202.5554,269.6744,124.4474,-6.4751e-06,-9.85e-06,0.0,0 STARLINK-3106,1 49164U 21082AL  21358.25001157 -.00000985  00000-0 -64751-5 0  9999,2 49164  69.9988 202.5554 0003386 269.6744 124.4474 15.69743449 17147,6737.768,91.735,361.914,357.352,0.0
49164.0,STARLINK-3106,PAYLOAD,2021-12-24 14:00:01,15.69782489,0.0003403,69.9989,201.6171,265.6626,211.5659,-0.00035253,-0.00042143,0.0,0 STARLINK-3106,1 49164U 21082AL  21358.58334491 -.00042143  00000-0 -35253-3 0  9990,2 49164  69.9989 201.6171 0003403 265.6626 211.5659 15.69782489  3682,6737.656,91.732,361.814,357.228,0.0
49164.0,STARLINK-3106,PAYLOAD,2021-12-24 22:00:00,15.69704315,0.0003569,69.9989,200.6801,272.9823,287.403,0.000368,0.00043868,0.0,0 STARLINK-3106,1 49164U 21082AL  21358.91667824  .00043868  00000-0  36800-3 0  9998,2 49164  69.9989 200.6801 0003569 272.9823 287.4030 15.69704315  3669,6737.88,91.737,362.15,357.34,0.0
49164.0,STARLINK-3106,PAYLOAD,2021-12-25 14:00:01,15.69761169,0.0003549,69.9993,198.8066,266.9844,99.6072,0.00023927,0.00028463,0.0,0 STARLINK-3106,1 49164U 21082AL  21359.58334491  .00028463  00000-0  23927-3 0  9993,2 49164  69.9993 198.8066 0003549 266.9844  99.6072 15.69761169 17359,6737.717,91.734,361.974,357.191,0.0
49164.0,STARLINK-3106,PAYLOAD,2021-12-25 22:00:00,15.69765955,0.0003522,69.9993,197.8696,273.3,176.4427,0.00019927,0.0002366,0.0,0 STARLINK-3106,1 49164U 21082AL  21359.91667824  .00023660  00000-0  19927-3 0  9998,2 49164  69.9993 197.8696 0003522 273.3000 176.4427 15.69765955  3680,6737.704000000002,91.733,361.942,357.196,0.0
49164.0,STARLINK-3106,PAYLOAD,2021-12-26 06:00:02,15.69781445,0.0003394,69.9989,196.9326,270.7843,262.1958,-0.00055045,-0.000655,0.0,0 STARLINK-3106,1 49164U 21082AL  21360.25002315 -.00065500  00000-0 -55045-3 0  9997,2 49164  69.9989 196.9326 0003394 270.7843 262.1958 15.69781445 17452,6737.659000000002,91.733,361.811,357.23800000000006,0.0
49164.0,STARLINK-3106,PAYLOAD,2021-12-26 14:00:01,15.69787337,0.0003246,69.9992,195.9954,265.9902,350.0537,-0.00068585,-0.00081423,0.0,0 STARLINK-3106,1 49164U 21082AL  21360.58334491 -.00081423  00000-0 -68585-3 0  9991,2 49164  69.9992 195.9954 0003246 265.9902 350.0537 15.69787337  3675,6737.642,91.732,361.694,357.32,0.0
49164.0,STARLINK-3106,PAYLOAD,2021-12-26 22:00:00,15.69694287,0.0003047,69.9993,195.0585,274.4225,64.7565,0.00058062,0.00069515,0.0,0 STARLINK-3106,1 49164U 21082AL  21360.91667824  .00069515  00000-0  58062-3 0  9992,2 49164  69.9993 195.0585 0003047 274.4225  64.7565 15.69694287 17563,6737.909000000002,91.738,361.827,357.721,0.0
49164.0,STARLINK-3106,PAYLOAD,2021-12-27 06:00:00,15.69749915,0.0003082,69.9992,194.1216,271.1975,151.062,-0.00031687,-0.00037867,0.0,0 STARLINK-3106,1 49164U 21082AL  21361.25001157 -.00037867  00000-0 -31687-3 0  9992,2 49164  69.9992 194.1216 0003082 271.1975 151.0620 15.69749915 17615,6737.75,91.734,361.691,357.538,0.0
49164.0,STARLINK-3106,PAYLOAD,2021-12-27 14:00:01,15.69727941,0.0003265,69.9997,193.1848,267.7363,237.6327,-0.00019137,-0.00022974,0.0,0 STARLINK-3106,1 49164U 21082AL  21361.58334491 -.00022974  00000-0 -19137-3 0  9997,2 49164  69.9997 193.1848 0003265 267.7363 237.6327 15.69727941  3687,6737.812,91.736,361.877,357.478,0.0
49164.0,STARLINK-3106,PAYLOAD,2021-12-27 22:00:00,15.69690176,0.0003372,69.9995,192.2479,275.0606,313.4047,0.00049905,0.00059641,0.0,0 STARLINK-3106,1 49164U 21082AL  21361.91667824  .00059641  00000-0  49905-3 0  9998,2 49164  69.9995 192.2479 0003372 275.0606 313.4047 15.69690176  3676,6737.92,91.738,362.0580000000001,357.51300000000015,0.0
49164.0,STARLINK-3106,PAYLOAD,2021-12-28 06:00:00,15.69735398,0.0003354,69.9991,191.3109,270.9704,40.5906,0.00010834,0.00012733,0.0,0 STARLINK-3106,1 49164U 21082AL  21362.25001157  .00012733  00000-0  10834-3 0  9997,2 49164  69.9991 191.3109 0003354 270.9704  40.5906 15.69735398 17779,6737.791,91.735,361.916,357.396,0.0
49164.0,STARLINK-3106,PAYLOAD,2021-12-28 14:00:01,15.69778222,0.0003439,69.9991,190.374,268.4884,126.1772,3.634800000000001e-05,4.134e-05,0.0,0 STARLINK-3106,1 49164U 21082AL  21362.58334491  .00004134  00000-0  36348-4 0  9998,2 49164  69.9991 190.3740 0003439 268.4884 126.1772 15.69778222  3707,6737.669,91.733,361.851,357.216,0.0
49164.0,STARLINK-3106,PAYLOAD,2021-12-28 22:00:00,15.69785566,0.0003496,69.9991,189.437,275.5838,202.2479,-0.00023128,-0.00027772,0.0,0 STARLINK-3106,1 49164U 21082AL  21362.91667824 -.00027772  00000-0 -23128-3 0  9990,2 49164  69.9991 189.4370 0003496 275.5838 202.2479 15.69785566 17878,6737.648,91.732,361.86800000000005,357.157,0.0
49164.0,STARLINK-3106,PAYLOAD,2021-12-29 14:00:01,15.69797106,0.0003523,69.9994,187.5631,269.4673,14.7044,-0.00074994,-0.00088974,0.0,0 STARLINK-3106,1 49164U 21082AL  21363.58335648 -.00088974  00000-0 -74994-3 0  9998,2 49164  69.9994 187.5631 0003523 269.4673  14.7044 15.69797106  3704,6737.614000000001,91.732,361.853,357.106,0.0
49164.0,STARLINK-3106,PAYLOAD,2021-12-29 21:58:11,15.6974935,0.0002801,69.9988,186.6281,277.7578,82.33,-1.1845e-05,-1.625e-05,0.0,0 STARLINK-3106,1 49164U 21082AL  21363.91541347 -.00001625  00000-0 -11845-4 0  9995,2 49164  69.9988 186.6281 0002801 277.7578  82.3300 15.69749350 18038,6737.751,91.734,361.503,357.72900000000016,0.0
49164.0,STARLINK-3106,PAYLOAD,2021-12-30 04:00:00,15.69754067,0.0003425,69.9985,185.9236,273.6463,65.9215,-0.00020802,-0.00024976,0.0,0 STARLINK-3106,1 49164U 21082AL  21364.16667824 -.00024976  00000-0 -20802-3 0  9998,2 49164  69.9985 185.9236 0003425 273.6463  65.9215 15.69754067 18075,6737.738,91.734,361.91,357.295,0.0
49164.0,STARLINK-3106,PAYLOAD,2021-12-30 14:47:34,15.69758348,0.0003245,69.9982,184.6584,266.3659,93.7165,4.4366e-05,5.089e-05,0.0,0 STARLINK-3106,1 49164U 21082AL  21364.61637308  .00005089  00000-0  44366-4 0  9996,2 49164  69.9982 184.6584 0003245 266.3659  93.7165 15.69758348 18147,6737.725,91.734,361.777,357.404,0.0
49164.0,STARLINK-3106,PAYLOAD,2021-12-30 20:54:37,15.69765089,0.0003326,69.9982,183.9421,268.3452,91.7363,0.00013715,0.00016202,0.0,0 STARLINK-3106,1 49164U 21082AL  21364.87126743  .00016202  00000-0  13715-3 0  9992,2 49164  69.9982 183.9421 0003326 268.3452  91.7363 15.69765089 18184,6737.706,91.733,361.812,357.33,0.0
